ONEWEB-0130             
1 47276U 20100U   26196.77881683  .00000331  00000+0  88506-3 0  9997
2 47276  87.8971 344.9685 0001949  98.2104 261.9246 13.12443147268392
ONEWEB-0131             
1 47277U 20100V   26196.77543019  .00000209  00000+0  54472-3 0  9995
2 47277  87.8960 344.9843 0001854 102.0193 258.1143 13.12442614268431
ONEWEB-0132             
1 47278U 20100W   26196.80422065  .00000062  00000+0  13645-3 0  9991
2 47278  87.8963 344.9806 0001868  99.9458 260.1882 13.12441228268339
ONEWEB-0133             
1 47279U 20100X   26196.82101198 -.00000421  00000+0 -12055-2 0  9999
2 47279  87.8976 344.9570 0001807 100.9435 259.1897 13.12443248268498
ONEWEB-0134             
1 47280U 20100Y   26196.79067306  .00000388  00000+0  10438-2 0  9992
2 47280  87.8975 344.9601 0002058 102.4508 257.6851 13.12441960268460
ONEWEB-0135             
1 47281U 20100Z   26196.83809896 -.00000222  00000+0 -65205-3 0  9998
2 47281  87.8963 344.9701 0001990 104.7380 255.3969 13.12444276268497
ONEWEB-0136             
1 47282U 20100AA  26196.78050612  .00000409  00000+0  11009-2 0  9994
2 47282  87.8969 344.9650 0002114 102.3021 257.8345 13.12443752268417
ONEWEB-0137             
1 47283U 20100AB  26196.81437872 -.00000317  00000+0 -91732-3 0  9998
2 47283  87.8976 344.9694 0001807  92.9538 267.1798 13.12442325268320
ONEWEB-0138             
1 47284U 20100AC  26196.79236875  .00000348  00000+0  93306-3 0  9997
2 47284  87.8972 344.9783 0002051  98.9089 261.2272 13.12442281268407
ONEWEB-0139             
1 47285U 20100AD  26196.83316399 -.00000321  00000+0 -92812-3 0  9997
2 47285  87.8971 344.9566 0001912  96.5575 263.5772 13.12443164268484
ONEWEB-0140             
1 47286U 20100AE  26196.78728525  .00000385  00000+0  10334-2 0  9996
2 47286  87.8972 344.9566 0001768 100.8960 259.2367 13.12442612268447
ONEWEB-0141             
1 47287U 20100AF  26196.83287507 -.00000317  00000+0 -91698-3 0  9993
2 47287  87.8973 344.9525 0001863  87.2577 272.8765 13.12444160268434
ONEWEB-0142             
1 47288U 20100AG  26196.82129462 -.00000357  00000+0 -10284-2 0  9993
2 47288  87.8966 344.9748 0002187  88.7329 271.4050 13.12443804268420
ONEWEB-0143             
1 47289U 20100AH  26196.83132192 -.00000400  00000+0 -11464-2 0  9999
2 47289  87.8965 344.9724 0001849  95.4182 264.7158 13.12443660268402
ONEWEB-0144             
1 47290U 20100AJ  26196.80253155  .00000020  00000+0  21541-4 0  9996
2 47290  87.8976 344.9538 0002208  96.5713 263.5667 13.12440956268329
ONEWEB-0145             
1 47291U 20100AK  26196.77372956  .00000050  00000+0  10315-3 0  9993
2 47291  87.8963 344.9842 0001898  93.8073 266.3273 13.12443621268514
ONEWEB-0146             
1 47292U 20100AL  26196.46539284  .00000087  00000+0  20749-3 0  9991
2 47292  87.8970 345.0392 0001519  99.4112 260.7188 13.12443650268381
ONEWEB-0147             
1 47293U 20100AM  26196.81268882 -.00000165  00000+0 -49380-3 0  9995
2 47293  87.8978 344.9528 0001990 101.8423 258.2929 13.12441550268321
ONEWEB-0115             
1 48042U 21025A   26196.74231500 -.00000304  00000+0 -86878-3 0  9992
2 48042  87.8982 314.5415 0001839 101.5872 258.5464 13.13460994257345
ONEWEB-0152             
1 48043U 21025B   26196.75585240 -.00000092  00000+0 -28644-3 0  9998
2 48043  87.8989 314.5371 0001862 102.0224 258.1114 13.13473764257300
ONEWEB-0153             
1 48044U 21025C   26196.81002111 -.00000237  00000+0 -68259-3 0  9994
2 48044  87.8979 314.5266 0002015  98.5767 261.5591 13.13469346257303
ONEWEB-0154             
1 48045U 21025D   26196.80663727 -.00000160  00000+0 -47376-3 0  9992
2 48045  87.8986 314.5266 0001968 105.7693 254.3653 13.13469821257269
ONEWEB-0116             
1 48046U 21025E   26196.76939903  .00000238  00000+0  61726-3 0  9999
2 48046  87.8987 314.5314 0001842 102.9912 257.1422 13.13470211257405
ONEWEB-0150             
1 48047U 21025F   26196.82187675 -.00000282  00000+0 -80607-3 0  9998
2 48047  87.8990 314.5183 0001919  94.1188 266.0160 13.13469916257303
ONEWEB-0107             
1 48048U 21025G   26196.74739140 -.00000253  00000+0 -72659-3 0  9996
2 48048  87.8987 314.5292 0002130  97.3132 262.8239 13.13472012257279
ONEWEB-0101             
1 48049U 21025H   26196.78632828  .00000279  00000+0  72868-3 0  9994
2 48049  87.8977 314.5344 0002086 102.8870 257.2493 13.13470534257253
ONEWEB-0113             
1 48050U 21025J   26196.80149208 -.00000078  00000+0 -24829-3 0  9997
2 48050  87.8983 314.4386 0001860  95.5417 264.5925 13.13890857257368
ONEWEB-0112             
1 48051U 21025K   26196.82864780 -.00000198  00000+0 -57742-3 0  9992
2 48051  87.8987 314.5115 0002225 103.0801 257.0576 13.13469735257357
ONEWEB-0156             
1 48052U 21025L   26196.83710376  .00000007  00000+0 -15762-4 0  9990
2 48052  87.8986 314.5194 0002010  95.9923 264.1435 13.13472413257338
ONEWEB-0161             
1 48053U 21025M   26196.81173715 -.00002477  00000+0 -68204-2 0  9990
2 48053  87.8983 314.5248 0002899  77.8189 282.3265 13.13451365257262
