OBJECT_NAME,OBJECT_ID,EPOCH,MEAN_MOTION,ECCENTRICITY,INCLINATION,RA_OF_ASC_NODE,ARG_OF_PERICENTER,MEAN_ANOMALY,EPHEMERIS_TYPE,CLASSIFICATION_TYPE,NORAD_CAT_ID,ELEMENT_SET_NO,REV_AT_EPOCH,BSTAR,MEAN_MOTION_DOT,MEAN_MOTION_DDOT
ONEWEB-0130,2020-100U,2026-07-15T18:41:29.774112,13.12443147,.0001949,87.8971,344.9685,98.2104,261.9246,0,U,47276,999,26839,.88506E-3,.331E-5,0
ONEWEB-0131,2020-100V,2026-07-15T18:36:37.168416,13.12442614,.0001854,87.8960,344.9843,102.0193,258.1143,0,U,47277,999,26843,.54472E-3,.209E-5,0
ONEWEB-0132,2020-100W,2026-07-15T19:18:04.664160,13.12441228,.0001868,87.8963,344.9806,99.9458,260.1882,0,U,47278,999,26833,.13645E-3,.62E-6,0
ONEWEB-0133,2020-100X,2026-07-15T19:42:15.435072,13.12443248,.0001807,87.8976,344.9570,100.9435,259.1897,0,U,47279,999,26849,-.12055E-2,-.421E-5,0
ONEWEB-0134,2020-100Y,2026-07-15T18:58:34.152384,13.12441960,.0002058,87.8975,344.9601,102.4508,257.6851,0,U,47280,999,26846,.10438E-2,.388E-5,0
ONEWEB-0135,2020-100Z,2026-07-15T20:06:51.750144,13.12444276,.000199,87.8963,344.9701,104.7380,255.3969,0,U,47281,999,26849,-.65205E-3,-.222E-5,0
ONEWEB-0136,2020-100AA,2026-07-15T18:43:55.728768,13.12443752,.0002114,87.8969,344.9650,102.3021,257.8345,0,U,47282,999,26841,.11009E-2,.409E-5,0
ONEWEB-0137,2020-100AB,2026-07-15T19:32:42.321408,13.12442325,.0001807,87.8976,344.9694,92.9538,267.1798,0,U,47283,999,26832,-.91732E-3,-.317E-5,0
ONEWEB-0138,2020-100AC,2026-07-15T19:01:00.660000,13.12442281,.0002051,87.8972,344.9783,98.9089,261.2272,0,U,47284,999,26840,.93306E-3,.348E-5,0
ONEWEB-0139,2020-100AD,2026-07-15T19:59:45.368736,13.12443164,.0001912,87.8971,344.9566,96.5575,263.5772,0,U,47285,999,26848,-.92812E-3,-.321E-5,0
ONEWEB-0140,2020-100AE,2026-07-15T18:53:41.445600,13.12442612,.0001768,87.8972,344.9566,100.8960,259.2367,0,U,47286,999,26844,.10334E-2,.385E-5,0
ONEWEB-0141,2020-100AF,2026-07-15T19:59:20.406048,13.12444160,.0001863,87.8973,344.9525,87.2577,272.8765,0,U,47287,999,26843,-.91698E-3,-.317E-5,0
ONEWEB-0142,2020-100AG,2026-07-15T19:42:39.855168,13.12443804,.0002187,87.8966,344.9748,88.7329,271.4050,0,U,47288,999,26842,-.10284E-2,-.357E-5,0
ONEWEB-0143,2020-100AH,2026-07-15T19:57:06.213888,13.12443660,.0001849,87.8965,344.9724,95.4182,264.7158,0,U,47289,999,26840,-.11464E-2,-.4E-5,0
ONEWEB-0144,2020-100AJ,2026-07-15T19:15:38.725920,13.12440956,.0002208,87.8976,344.9538,96.5713,263.5667,0,U,47290,999,26832,.21541E-4,.2E-6,0
ONEWEB-0145,2020-100AK,2026-07-15T18:34:10.233984,13.12443621,.0001898,87.8963,344.9842,93.8073,266.3273,0,U,47291,999,26851,.10315E-3,.5E-6,0
ONEWEB-0146,2020-100AL,2026-07-15T11:10:09.941376,13.12443650,.00015192,87.8970,345.0392,99.4112,260.7188,0,U,47292,999,26838,.20749486E-3,.87E-6,0
ONEWEB-0147,2020-100AM,2026-07-15T19:30:16.314048,13.12441550,.000199,87.8978,344.9528,101.8423,258.2929,0,U,47293,999,26832,-.4938E-3,-.165E-5,0
ONEWEB-0115,2021-025A,2026-07-15T17:48:56.016000,13.13460994,.0001839,87.8982,314.5415,101.5872,258.5464,0,U,48042,999,25734,-.86878E-3,-.304E-5,0
ONEWEB-0152,2021-025B,2026-07-15T18:08:25.647360,13.13473764,.0001862,87.8989,314.5371,102.0224,258.1114,0,U,48043,999,25730,-.28644E-3,-.92E-6,0
ONEWEB-0153,2021-025C,2026-07-15T19:26:25.823904,13.13469346,.0002015,87.8979,314.5266,98.5767,261.5591,0,U,48044,999,25730,-.68259E-3,-.237E-5,0
ONEWEB-0154,2021-025D,2026-07-15T19:21:33.460128,13.13469821,.0001968,87.8986,314.5266,105.7693,254.3653,0,U,48045,999,25726,-.47376E-3,-.16E-5,0
ONEWEB-0116,2021-025E,2026-07-15T18:27:56.076192,13.13470211,.0001842,87.8987,314.5314,102.9912,257.1422,0,U,48046,999,25740,.61726E-3,.238E-5,0
ONEWEB-0150,2021-025F,2026-07-15T19:43:30.151200,13.13469916,.0001919,87.8990,314.5183,94.1188,266.0160,0,U,48047,999,25730,-.80607E-3,-.282E-5,0
ONEWEB-0107,2021-025G,2026-07-15T17:56:14.616960,13.13472012,.000213,87.8987,314.5292,97.3132,262.8239,0,U,48048,999,25727,-.72659E-3,-.253E-5,0
ONEWEB-0101,2021-025H,2026-07-15T18:52:18.763392,13.13470534,.0002086,87.8977,314.5344,102.8870,257.2493,0,U,48049,999,25725,.72868E-3,.279E-5,0
ONEWEB-0113,2021-025J,2026-07-15T19:14:08.915712,13.13890857,.000186,87.8983,314.4386,95.5417,264.5925,0,U,48050,999,25736,-.24829E-3,-.78E-6,0
ONEWEB-0112,2021-025K,2026-07-15T19:53:15.169920,13.13469735,.0002225,87.8987,314.5115,103.0801,257.0576,0,U,48051,999,25735,-.57742E-3,-.198E-5,0
ONEWEB-0156,2021-025L,2026-07-15T20:05:25.764864,13.13472413,.000201,87.8986,314.5194,95.9923,264.1435,0,U,48052,999,25733,-.15762E-4,.7E-7,0
ONEWEB-0161,2021-025M,2026-07-15T19:28:54.089760,13.13451365,.0002899,87.8983,314.5248,77.8189,282.3265,0,U,48053,999,25726,-.68204E-2,-.2477E-4,0
